<?xml version="1.0" encoding="UTF-8"?>
<osm version="0.6" generator="CGImap 0.5.5 (612 thorn-03.openstreetmap.org)" copyright="OpenStreetMap and contributors" attribution="http://www.openstreetmap.org/copyright" license="http://opendatacommons.org/licenses/odbl/1-0/">
 <way id="5006061" visible="true" version="22" changeset="25181937" timestamp="2014-09-02T13:21:09Z" user="b2me Tourism Marketing" uid="2293676">
  <nd ref="33257503"/>
  <nd ref="1371271841"/>
  <nd ref="33257505"/>
  <nd ref="33257506"/>
  <nd ref="33257507"/>
  <nd ref="33257508"/>
  <nd ref="33257509"/>
  <nd ref="33257510"/>
  <nd ref="33257468"/>
  <nd ref="1371271843"/>
  <nd ref="33257469"/>
  <nd ref="33257470"/>
  <nd ref="33257471"/>
  <nd ref="1371271842"/>
  <nd ref="33257472"/>
  <nd ref="33257473"/>
  <nd ref="33257493"/>
  <nd ref="33257494"/>
  <nd ref="33257495"/>
  <nd ref="33257496"/>
  <nd ref="33257498"/>
  <nd ref="2137079661"/>
  <nd ref="2137079675"/>
  <nd ref="347140916"/>
  <nd ref="33257499"/>
  <nd ref="1371271840"/>
  <nd ref="33257500"/>
  <nd ref="33257502"/>
  <nd ref="33257503"/>
  <tag k="addr:city" v="London"/>
  <tag k="addr:housename" v="The Queen’s Walk"/>
  <tag k="addr:postcode" v="SE1 2JH"/>
  <tag k="building" v="ship"/>
  <tag k="height" v="5"/>
  <tag k="historic" v="ship"/>
  <tag k="name" v="HMS Belfast"/>
  <tag k="name:he" v="אה&quot;מ בלפאסט"/>
  <tag k="note" v="Once home to a crew of up to 950 men, HMS Belfast, part of Imperial War Museums, tells the stories of those who lived and worked on board this warship during the Second World War and beyond."/>
  <tag k="operator" v="www.iwm.org.uk"/>
  <tag k="ref" v="C35"/>
  <tag k="ship:type" v="light_cruiser"/>
  <tag k="start_date" v="1938"/>
  <tag k="tourism" v="attraction"/>
  <tag k="website" v="http://hmsbelfast.iwm.org.uk/"/>
  <tag k="wheelchair" v="limited"/>
  <tag k="wikipedia" v="en:HMS Belfast (C35)"/>
 </way>
</osm>
