<?xml version="1.0" encoding="UTF-8"?>
<osm version="0.6" generator="CGImap 0.5.5 (27484 thorn-02.openstreetmap.org)" copyright="OpenStreetMap and contributors" attribution="http://www.openstreetmap.org/copyright" license="http://opendatacommons.org/licenses/odbl/1-0/">
 <way id="187293587" visible="true" version="7" changeset="40705866" timestamp="2016-07-13T08:21:43Z" user="SkaBook" uid="4015714">
  <nd ref="2901345937"/>
  <nd ref="1980111902"/>
  <nd ref="1980111906"/>
  <nd ref="3640676590"/>
  <nd ref="3640676591"/>
  <nd ref="2901345945"/>
  <nd ref="1980111905"/>
  <nd ref="1980111901"/>
  <nd ref="1980111895"/>
  <nd ref="1980111874"/>
  <nd ref="1980111879"/>
  <nd ref="2901347544"/>
  <nd ref="2901345982"/>
  <nd ref="2901345994"/>
  <nd ref="2901347543"/>
  <nd ref="2901345933"/>
  <nd ref="2901345952"/>
  <nd ref="2901345937"/>
  <tag k="addr:city" v="Manchester"/>
  <tag k="addr:postcode" v="M17 1TZ"/>
  <tag k="addr:street" v="Trafford Wharf Road"/>
  <tag k="alt_name" v="IWM North"/>
  <tag k="building" v="yes"/>
  <tag k="name" v="Imperial War Museum North"/>
  <tag k="opening_hours" v="Mo-Su 10:00-17:00"/>
  <tag k="tourism" v="museum"/>
  <tag k="website" v="http://www.iwm.org.uk/visits/iwm-north"/>
  <tag k="wheelchair" v="yes"/>
  <tag k="wikipedia" v="en:Imperial War Museum North"/>
 </way>
</osm>
